COSMOS 1933             
1 18958U 88020A   25360.99902230  .00005239  00000+0  26190-3 0  9998
2 18958  82.5137 322.7885 0006470  90.5386 269.6588 15.17229112 39201
SL-3 R/B                
1 19046U 88032B   25361.09226455  .00006613  00000+0  31708-3 0  9998
2 19046  97.5099 339.7157 0028063 124.5670 235.8218 15.18887104 41085
SL-16 R/B               
1 19120U 88039B   25361.05110397 -.00000097  00000+0 -22966-4 0  9990
2 19120  71.0125 222.1390 0019538  91.7838 268.5525 14.19599716948075
COSMOS 1953             
1 19210U 88050A   25351.75027580  .00004793  00000+0  17925-3 0  9993
2 19210  82.5093 240.5536 0013540  56.0210 304.2313 15.26995692 25270
SL-8 R/B                
1 19257U 88053B   25361.15105006  .00000295  00000+0  10402-3 0  9998
2 19257  74.0465 246.1600 0018974  84.8601  28.6223 14.38868091966166
COSMOS 1975             
1 19573U 88093A   25361.00488821  .00009299  00000+0  35235-3 0  9990
2 19573  82.5196 190.5456 0012935  68.1966 292.0648 15.26674522  8317
SL-14 R/B               
1 19574U 88093B   25360.79529552  .00000623  00000+0  69076-4 0  9996
2 19574  82.5318 110.4777 0019223 280.0307 194.6611 14.85564378990219
SL-16 R/B               
1 19650U 88102B   25361.15066330  .00000017  00000+0  32476-4 0  9994
2 19650  71.0008 304.1210 0012201 127.1852 233.0387 14.16142665916628
INTERCOSMOS 24          
1 20261U 89080A   25360.88535071  .00000823  00000+0  23299-3 0  9999
2 20261  82.6056 151.7565 1189020 101.7203 271.9493 12.59462534657638
SL-14 R/B               
1 20262U 89080C   25361.06518913  .00000358  00000+0  10492-3 0  9991
2 20262  82.5913 219.8240 1230368 350.8528   7.1852 12.50424382651075
DELTA 1 R/B             
1 20323U 89089B   25361.12539169  .00000431  00000+0  11557-3 0  9996
2 20323  97.0742 215.0824 0068955 353.1933   6.8322 14.50584106885212
ARIANE 40 R/B           
1 20443U 90005H   25361.19402397  .00000340  00000+0  12187-3 0  9997
2 20443  98.3225  58.9623 0011120  66.6006 293.6351 14.39809163882377
